$$SOE
2461295.500000000, A.D. 2026-Sep-12 00:00:00.0000, -2.849931771124927E+08, 1.327714833717187E+08, -1.928451946363650E+06,
2461302.500000000, A.D. 2026-Sep-19 00:00:00.0000, -2.893534806888809E+08, 1.207836925918425E+08, -2.678018844179288E+06,
2461309.500000000, A.D. 2026-Sep-26 00:00:00.0000, -2.932582677676159E+08, 1.086058675165818E+08, -3.423364617512502E+06,
2461316.500000000, A.D. 2026-Oct-03 00:00:00.0000, -2.966977479611794E+08, 9.625582531306145E+07, -4.163273168903366E+06,
2461323.500000000, A.D. 2026-Oct-10 00:00:00.0000, -2.996628653277692E+08, 8.375198917116874E+07, -4.896519866033889E+06,
2461330.500000000, A.D. 2026-Oct-17 00:00:00.0000, -3.021453431940685E+08, 7.111335689246787E+07, -5.621874527838994E+06,
2461337.500000000, A.D. 2026-Oct-24 00:00:00.0000, -3.041377277071354E+08, 5.835946558314494E+07, -6.338104573893547E+06,
2461344.500000000, A.D. 2026-Oct-31 00:00:00.0000, -3.056334296542084E+08, 4.551035240292116E+07, -7.043978339367334E+06,
2461351.500000000, A.D. 2026-Nov-07 00:00:00.0000, -3.066267638407661E+08, 3.258651150098724E+07, -7.738268566084211E+06,
2461358.500000000, A.D. 2026-Nov-14 00:00:00.0000, -3.071129854508317E+08, 1.960884812323454E+07, -8.419755998748392E+06,
2461365.500000000, A.D. 2026-Nov-21 00:00:00.0000, -3.070883248276774E+08, 6.598630709570212E+06, -9.087232845596123E+06,
2461372.500000000, A.D. 2026-Nov-28 00:00:00.0000, -3.065500213117531E+08, -6.422561848026798E+06, -9.739506237714889E+06,
2461379.500000000, A.D. 2026-Dec-05 00:00:00.0000, -3.054963521695886E+08, -1.943289821641950E+07, -1.037540205082023E+07,
2461386.500000000, A.D. 2026-Dec-12 00:00:00.0000, -3.039266561076367E+08, -3.241035451831811E+07, -1.099376882502385E+07,
2461393.500000000, A.D. 2026-Dec-19 00:00:00.0000, -3.018413529349821E+08, -4.533277580431616E+07, -1.159348158198230E+07,
2461400.500000000, A.D. 2026-Dec-26 00:00:00.0000, -2.992419592338601E+08, -5.817793962909801E+07, -1.217344557130500E+07,
2461407.500000000, A.D. 2027-Jan-02 00:00:00.0000, -2.961310995182883E+08, -7.092362154306376E+07, -1.273259996084455E+07,
2461414.500000000, A.D. 2027-Jan-09 00:00:00.0000, -2.925125125553339E+08, -8.354766206537740E+07, -1.326992145245780E+07,
2461421.500000000, A.D. 2027-Jan-16 00:00:00.0000, -2.883910526469868E+08, -9.602803469031690E+07, -1.378442779813950E+07,
2461428.500000000, A.D. 2027-Jan-23 00:00:00.0000, -2.837726857091794E+08, -1.083429145062046E+08, -1.427518119715013E+07,
2461435.500000000, A.D. 2027-Jan-30 00:00:00.0000, -2.786644798954265E+08, -1.204707469963919E+08, -1.474129156937395E+07,
2461442.500000000, A.D. 2027-Feb-06 00:00:00.0000, -2.730745903275647E+08, -1.323903161890449E+08, -1.518191969063904E+07,
2461449.500000000, A.D. 2027-Feb-13 00:00:00.0000, -2.670122384279778E+08, -1.440808104333389E+08, -1.559628002228802E+07,
2461456.500000000, A.D. 2027-Feb-20 00:00:00.0000, -2.604876882940953E+08, -1.555218860943229E+08, -1.598364305715157E+07,
2461463.500000000, A.D. 2027-Feb-27 00:00:00.0000, -2.535122188475989E+08, -1.666937319043836E+08, -1.634333755007625E+07,
2461470.500000000, A.D. 2027-Mar-06 00:00:00.0000, -2.460980889325937E+08, -1.775771316026770E+08, -1.667475273587859E+07,
2461477.500000000, A.D. 2027-Mar-13 00:00:00.0000, -2.382584972178965E+08, -1.881535223898761E+08, -1.697734020861869E+07,
2461484.500000000, A.D. 2027-Mar-20 00:00:00.0000, -2.300075383376255E+08, -1.984050496300885E+08, -1.725061541771641E+07,
2461491.500000000, A.D. 2027-Mar-27 00:00:00.0000, -2.213601554099263E+08, -2.083146179761486E+08, -1.749415883708782E+07,
2461498.500000000, A.D. 2027-Apr-03 00:00:00.0000, -2.123320891061166E+08, -2.178659386349068E+08, -1.770761682507689E+07,
2461505.500000000, A.D. 2027-Apr-10 00:00:00.0000, -2.029398236145590E+08, -2.270435724635569E+08, -1.789070217666103E+07,
2461512.500000000, A.D. 2027-Apr-17 00:00:00.0000, -1.932005299059142E+08, -2.358329686728387E+08, -1.804319437151131E+07,
2461519.500000000, A.D. 2027-Apr-24 00:00:00.0000, -1.831320066668284E+08, -2.442204990119573E+08, -1.816493953393033E+07,
2461526.500000000, A.D. 2027-May-01 00:00:00.0000, -1.727526190619373E+08, -2.521934872726405E+08, -1.825585013697302E+07,
2461533.500000000, A.D. 2027-May-08 00:00:00.0000, -1.620812354836982E+08, -2.597402332801140E+08, -1.831590442776224E+07,
2461540.500000000, A.D. 2027-May-15 00:00:00.0000, -1.511371642528676E+08, -2.668500303813348E+08, -1.834514537091660E+07,
2461547.500000000, A.D. 2027-May-22 00:00:00.0000, -1.399400922895856E+08, -2.735131790328540E+08, -1.834367919249259E+07,
2461554.500000000, A.D. 2027-May-29 00:00:00.0000, -1.285100228409739E+08, -2.797209980173162E+08, -1.831167396821949E+07,
2461561.500000000, A.D. 2027-Jun-05 00:00:00.0000, -1.168672118035522E+08, -2.854658302643827E+08, -1.824935809862655E+07,
2461568.500000000, A.D. 2027-Jun-12 00:00:00.0000, -1.050321050457350E+08, -2.907410429936895E+08, -1.815701847043672E+07,
2461575.500000000, A.D. 2027-Jun-19 00:00:00.0000, -9.302527743212034E+07, -2.955410233044226E+08, -1.803499837102470E+07,
2461582.500000000, A.D. 2027-Jun-26 00:00:00.0000, -8.086737361319913E+07, -2.998611696970168E+08, -1.788369522546674E+07,
2461589.500000000, A.D. 2027-Jul-03 00:00:00.0000, -6.857905076040658E+07, -3.036978797711107E+08, -1.770355819139595E+07,
2461596.500000000, A.D. 2027-Jul-10 00:00:00.0000, -5.618092348853527E+07, -3.070485343674682E+08, -1.749508563843411E+07,
2461603.500000000, A.D. 2027-Jul-17 00:00:00.0000, -4.369351117435377E+07, -3.099114784866458E+08, -1.725882254184687E+07,
2461610.500000000, A.D. 2027-Jul-24 00:00:00.0000, -3.113718772386051E+07, -3.122859993506133E+08, -1.699535783144067E+07,
2461617.500000000, A.D. 2027-Jul-31 00:00:00.0000, -1.853213354670370E+07, -3.141723016805781E+08, -1.670532173444694E+07,
2461624.500000000, A.D. 2027-Aug-07 00:00:00.0000, -5.898290070393203E+06, -3.155714793510254E+08, -1.638938301917019E+07,
2461631.500000000, A.D. 2027-Aug-14 00:00:00.0000, 6.744680808738551E+06, -3.164854839834157E+08, -1.604824596744144E+07,
2461638.500000000, A.D. 2027-Aug-21 00:00:00.0000, 1.937743289548388E+07, -3.169170941498774E+08, -1.568264742515944E+07,
2461645.500000000, A.D. 2027-Aug-28 00:00:00.0000, 3.198097088897475E+07, -3.168698842877296E+08, -1.529335416407061E+07,
2461652.500000000, A.D. 2027-Sep-04 00:00:00.0000, 4.453668341630385E+07, -3.163481911191924E+08, -1.488116025731677E+07,
2461659.500000000, A.D. 2027-Sep-11 00:00:00.0000, 5.702637253514925E+07, -3.153570785199409E+08, -1.444688440860550E+07,
2461666.500000000, A.D. 2027-Sep-18 00:00:00.0000, 6.943227988652605E+07, -3.139023017534387E+08, -1.399136731268175E+07,
2461673.500000000, A.D. 2027-Sep-25 00:00:00.0000, 8.173710979520287E+07, -3.119902713989103E+08, -1.351546908530295E+07,
2461680.500000000, A.D. 2027-Oct-02 00:00:00.0000, 9.392404947942248E+07, -3.096280171767244E+08, -1.302006677682213E+07,
2461687.500000000, A.D. 2027-Oct-09 00:00:00.0000, 1.059767864960444E+08, -3.068231518870397E+08, -1.250605198011191E+07,
2461694.500000000, A.D. 2027-Oct-16 00:00:00.0000, 1.178795236040430E+08, -3.035838357107642E+08, -1.197432855022453E+07,
2461701.500000000, A.D. 2027-Oct-23 00:00:00.0000, 1.296169914374726E+08, -2.999187410583529E+08, -1.142581046564268E+07,
2461708.500000000, A.D. 2027-Oct-30 00:00:00.0000, 1.411744594999377E+08, -2.958370175196191E+08, -1.086141981950259E+07,
2461715.500000000, A.D. 2027-Nov-06 00:00:00.0000, 1.525377444576579E+08, -2.913482559303181E+08, -1.028208474439548E+07,
2461722.500000000, A.D. 2027-Nov-13 00:00:00.0000, 1.636932138871220E+08, -2.864624537535532E+08, -9.688737259699956E+06,
2461729.500000000, A.D. 2027-Nov-20 00:00:00.0000, 1.746277885210332E+08, -2.811899840620518E+08, -9.082311486614227E+06,
2461736.500000000, A.D. 2027-Nov-27 00:00:00.0000, 1.853289447524788E+08, -2.755415652387873E+08, -8.463742136520058E+06,
2461743.500000000, A.D. 2027-Dec-04 00:00:00.0000, 1.957847155171329E+08, -2.695282305451530E+08, -7.833963011598274E+06,
2461750.500000000, A.D. 2027-Dec-11 00:00:00.0000, 2.059836891508691E+08, -2.631612985684567E+08, -7.193905545231491E+06,
2461757.500000000, A.D. 2027-Dec-18 00:00:00.0000, 2.159150066491294E+08, -2.564523449294713E+08, -6.544497433948696E+06,
2461764.500000000, A.D. 2027-Dec-25 00:00:00.0000, 2.255683576266310E+08, -2.494131752906637E+08, -5.886661372688860E+06,
2461771.500000000, A.D. 2028-Jan-01 00:00:00.0000, 2.349339751536973E+08, -2.420557996803962E+08, -5.221313892453015E+06,
$$EOE